*******************************************************************************
Ephemeris / WWW_USER Mon Jul 15 19:27:05 2024 Pasadena, USA      / Horizons    
*******************************************************************************
Target body name: (2018 RA1)                      {source: JPL#6}
Center body name: Earth (399)                     {source: DE441}
Center-site name: Gemini South Obs., Cerro Pachon
*******************************************************************************
Start time      : A.D. 2018-Nov-28 23:37:00.0000 UT      
Stop  time      : A.D. 2018-Nov-29 09:24:00.0000 UT      
Step-size       : 1 minutes
*******************************************************************************
Target pole/equ : undefined
Target radii    : undefined                                                    
Center geodetic : 289.2634, -30.2406227, 2.71233  {E-lon(deg),Lat(deg),Alt(km)}
Center cylindric: 289.2634,5517.21435,-3194.81213 {E-lon(deg),Dxy(km),Dz(km)}
Center pole/equ : ITRF93                          {East-longitude positive}
Center radii    : 6378.137, 6378.137, 6356.752 km {Equator_a, b, pole_c}       
Target primary  : Sun
Vis. interferer : MOON (R_eq= 1737.400) km        {source: DE441}
Rel. light bend : Sun                             {source: DE441}
Rel. lght bnd GM: 1.3271E+11 km^3/s^2                                          
Small-body perts: Yes                             {source: SB441-N16}
Atmos refraction: NO (AIRLESS)
RA format       : HMS
Time format     : CAL 
Calendar mode   : Mixed Julian/Gregorian
RTS-only print  : NO       
EOP file        : eop.240715.p241008                                           
EOP coverage    : DATA-BASED 1962-JAN-20 TO 2024-JUL-15. PREDICTS-> 2024-OCT-07
Units conversion: 1 au= 149597870.700 km, c= 299792.458 km/s, 1 day= 86400.0 s 
Table cut-offs 1: Elevation (-90.0deg=NO ),Airmass (>38.000=NO), Daylight (YES)
Table cut-offs 2: Solar elongation (  0.0,180.0=NO ),Local Hour Angle( 0.0=NO )
Table cut-offs 3: RA/DEC angular rate (     0.0=NO )                           
*******************************************************************************
Initial IAU76/J2000 heliocentric ecliptic osculating elements (au, days, deg.):
  EPOCH=  2458369.5 ! 2018-Sep-08.00 (TDB)         Residual RMS= .21275        
   EC= .3232115344739424   QR= .7703453101153647   TP= 2458436.6763547547      
   OM= 166.2054176892707   W=  269.7217787981747   IN= 8.763099478405824       
  Equivalent ICRF heliocentric cartesian coordinates (au, au/d):
   X= 9.899686155013647E-01  Y=-2.468208982240139E-01  Z=-1.030323866474361E-01
  VX=-9.411283005844916E-04 VY= 1.717513364149167E-02 VZ= 4.613440841260365E-03
Asteroid physical parameters (km, seconds, rotational period in hours):        
   GM= n.a.                RAD= n.a.               ROTPER= n.a.                
   H= 26.4                 G= .150                 B-V= n.a.                   
                           ALBEDO= n.a.            STYP= n.a.                  
*******************************************************************************
 Date__(UT)__HR:MN     R.A._________(ICRF)_________DEC
******************************************************
$$SOE
 2018-Nov-29 07:49  m  12 35 13.622520 -15 42 13.26396
 2018-Nov-29 07:50  m  12 35 13.746940 -15 42 13.37521
 2018-Nov-29 07:51  m  12 35 13.871343 -15 42 13.48645
 2018-Nov-29 07:52  m  12 35 13.995729 -15 42 13.59768
 2018-Nov-29 07:53  m  12 35 14.120099 -15 42 13.70889
 2018-Nov-29 07:54  m  12 35 14.244452 -15 42 13.82008
 2018-Nov-29 07:55  m  12 35 14.368789 -15 42 13.93126
 2018-Nov-29 07:56  m  12 35 14.493110 -15 42 14.04242
 2018-Nov-29 07:57  m  12 35 14.617414 -15 42 14.15357
 2018-Nov-29 07:58  m  12 35 14.741701 -15 42 14.26470
 2018-Nov-29 07:59  m  12 35 14.865973 -15 42 14.37581
 2018-Nov-29 08:00 Am  12 35 14.990228 -15 42 14.48690
 2018-Nov-29 08:01 Am  12 35 15.114466 -15 42 14.59798
 2018-Nov-29 08:02 Am  12 35 15.238688 -15 42 14.70904
 2018-Nov-29 08:03 Am  12 35 15.362894 -15 42 14.82008
 2018-Nov-29 08:04 Am  12 35 15.487084 -15 42 14.93110
 2018-Nov-29 08:05 Am  12 35 15.611257 -15 42 15.04210
 2018-Nov-29 08:06 Am  12 35 15.735414 -15 42 15.15309
 2018-Nov-29 08:07 Am  12 35 15.859556 -15 42 15.26405
 2018-Nov-29 08:08 Am  12 35 15.983680 -15 42 15.37499
 2018-Nov-29 08:09 Am  12 35 16.107789 -15 42 15.48592
 2018-Nov-29 08:10 Am  12 35 16.231882 -15 42 15.59682
 2018-Nov-29 08:11 Am  12 35 16.355958 -15 42 15.70771
 2018-Nov-29 08:12 Am  12 35 16.480019 -15 42 15.81857
 2018-Nov-29 08:13 Am  12 35 16.604063 -15 42 15.92941
 2018-Nov-29 08:14 Am  12 35 16.728092 -15 42 16.04023
 2018-Nov-29 08:15 Am  12 35 16.852104 -15 42 16.15103
 2018-Nov-29 08:16 Am  12 35 16.976101 -15 42 16.26181
 2018-Nov-29 08:17 Am  12 35 17.100082 -15 42 16.37256
 2018-Nov-29 08:18 Am  12 35 17.224047 -15 42 16.48329
 2018-Nov-29 08:19 Am  12 35 17.347996 -15 42 16.59400
 2018-Nov-29 08:20 Am  12 35 17.471929 -15 42 16.70469
 2018-Nov-29 08:21 Am  12 35 17.595846 -15 42 16.81535
 2018-Nov-29 08:22 Am  12 35 17.719748 -15 42 16.92599
 2018-Nov-29 08:23 Am  12 35 17.843634 -15 42 17.03660
 2018-Nov-29 08:24 Am  12 35 17.967504 -15 42 17.14719
 2018-Nov-29 08:25 Am  12 35 18.091359 -15 42 17.25776
 2018-Nov-29 08:26 Am  12 35 18.215198 -15 42 17.36830
 2018-Nov-29 08:27 Am  12 35 18.339021 -15 42 17.47882
 2018-Nov-29 08:28 Am  12 35 18.462829 -15 42 17.58931
 2018-Nov-29 08:29 Am  12 35 18.586621 -15 42 17.69977
 2018-Nov-29 08:30 Am  12 35 18.710398 -15 42 17.81021
 2018-Nov-29 08:31 Am  12 35 18.834159 -15 42 17.92063
 2018-Nov-29 08:32 Am  12 35 18.957905 -15 42 18.03101
 2018-Nov-29 08:33 Am  12 35 19.081636 -15 42 18.14137
 2018-Nov-29 08:34 Am  12 35 19.205351 -15 42 18.25171
 2018-Nov-29 08:35 Nm  12 35 19.329051 -15 42 18.36201
 2018-Nov-29 08:36 Nm  12 35 19.452735 -15 42 18.47229
 2018-Nov-29 08:37 Nm  12 35 19.576405 -15 42 18.58254
 2018-Nov-29 08:38 Nm  12 35 19.700059 -15 42 18.69276
 2018-Nov-29 08:39 Nm  12 35 19.823698 -15 42 18.80296
 2018-Nov-29 08:40 Nm  12 35 19.947322 -15 42 18.91312
 2018-Nov-29 08:41 Nm  12 35 20.070931 -15 42 19.02326
 2018-Nov-29 08:42 Nm  12 35 20.194524 -15 42 19.13337
 2018-Nov-29 08:43 Nm  12 35 20.318103 -15 42 19.24345
 2018-Nov-29 08:44 Nm  12 35 20.441667 -15 42 19.35350
 2018-Nov-29 08:45 Nm  12 35 20.565215 -15 42 19.46352
 2018-Nov-29 08:46 Nm  12 35 20.688749 -15 42 19.57351
 2018-Nov-29 08:47 Nm  12 35 20.812268 -15 42 19.68346
 2018-Nov-29 08:48 Nm  12 35 20.935772 -15 42 19.79339
 2018-Nov-29 08:49 Nm  12 35 21.059262 -15 42 19.90329
 2018-Nov-29 08:50 Nm  12 35 21.182736 -15 42 20.01316
 2018-Nov-29 08:51 Nm  12 35 21.306196 -15 42 20.12299
 2018-Nov-29 08:52 Nm  12 35 21.429641 -15 42 20.23279
 2018-Nov-29 08:53 Nm  12 35 21.553072 -15 42 20.34256
 2018-Nov-29 08:54 Nm  12 35 21.676488 -15 42 20.45230
 2018-Nov-29 08:55 Nm  12 35 21.799889 -15 42 20.56201
 2018-Nov-29 08:56 Nm  12 35 21.923276 -15 42 20.67168
 2018-Nov-29 08:57 Nm  12 35 22.046648 -15 42 20.78132
 2018-Nov-29 08:58 Nm  12 35 22.170006 -15 42 20.89093
 2018-Nov-29 08:59 Nm  12 35 22.293350 -15 42 21.00050
 2018-Nov-29 09:00 Nm  12 35 22.416679 -15 42 21.11004
 2018-Nov-29 09:01 Nm  12 35 22.539994 -15 42 21.21955
 2018-Nov-29 09:02 Nm  12 35 22.663295 -15 42 21.32902
 2018-Nov-29 09:03 Nm  12 35 22.786581 -15 42 21.43845
 2018-Nov-29 09:04 Nm  12 35 22.909854 -15 42 21.54786
 2018-Nov-29 09:05 Nm  12 35 23.033112 -15 42 21.65722
 2018-Nov-29 09:06 Nm  12 35 23.156356 -15 42 21.76655
 2018-Nov-29 09:07 Cm  12 35 23.279586 -15 42 21.87585
 2018-Nov-29 09:08 Cm  12 35 23.402802 -15 42 21.98511
 2018-Nov-29 09:09 Cm  12 35 23.526004 -15 42 22.09434
 2018-Nov-29 09:10 Cm  12 35 23.649193 -15 42 22.20352
 2018-Nov-29 09:11 Cm  12 35 23.772367 -15 42 22.31267
 2018-Nov-29 09:12 Cm  12 35 23.895528 -15 42 22.42179
 2018-Nov-29 09:13 Cm  12 35 24.018675 -15 42 22.53087
 2018-Nov-29 09:14 Cm  12 35 24.141808 -15 42 22.63991
 2018-Nov-29 09:15 Cm  12 35 24.264927 -15 42 22.74891
 2018-Nov-29 09:16 Cm  12 35 24.388033 -15 42 22.85788
 2018-Nov-29 09:17 Cm  12 35 24.511125 -15 42 22.96680
 2018-Nov-29 09:18 Cm  12 35 24.634204 -15 42 23.07569
 2018-Nov-29 09:19 Cm  12 35 24.757269 -15 42 23.18454
 2018-Nov-29 09:20 Cm  12 35 24.880321 -15 42 23.29336
 2018-Nov-29 09:21 Cm  12 35 25.003359 -15 42 23.40213
 2018-Nov-29 09:22 Cm  12 35 25.126384 -15 42 23.51086
 2018-Nov-29 09:23 Cm  12 35 25.249396 -15 42 23.61956
 2018-Nov-29 09:24 Cm  12 35 25.372394 -15 42 23.72821
